KUIPER-00136            
1 65962U 25228R   26027.50002314 -.00018364  00000+0 -23880-2 0  9995
2 65962  51.8985 170.2853 0000489 218.8992  57.9681 14.79905865  5849
KUIPER-00137            
1 65963U 25228S   26027.00002315 -.00022007  00000+0 -26181-2 0  9998
2 65963  51.9005 170.0216 0002478 204.1750 236.4485 14.83700000  5424
KUIPER-00138            
1 65964U 25228T   26027.50002314 -.00365570  00000+0 -41979-1 0  9999
2 65964  51.9208 165.4839 0007660 190.5123 111.5518 14.87556854  4798
KUIPER-00140            
1 65965U 25228U   26027.50002314 -.00032756  00000+0 -39942-2 0  9995
2 65965  51.8976 167.8869 0001167  68.1434 339.6696 14.82892433  5668
KUIPER-00141            
1 65966U 25228V   26027.50002314 -.01089614  00000+0 -10502+0 0  9990
2 65966  51.8948 163.5483 0002418 278.3309 151.5690 14.95697696  3952
KUIPER-00146            
1 65967U 25228W   26027.50002314 -.00024002  00000+0 -27035-2 0  9992
2 65967  51.8979 165.5565 0001355 264.7965 232.3802 14.85989230  5857
KUIPER-00149            
1 65968U 25228X   26027.50002314 -.01126365  00000+0 -78737-1 0  9993
2 65968  51.8999 161.7404 0003047 169.5361 180.2951 15.07882712  4321
KUIPER-00154            
1 65969U 25228Y   26027.50002314 -.01552682  00000+0 -86470-1 0  9992
2 65969  51.8844 160.5789 0006229 170.3536  28.8409 15.16453464  5080
